{"type":"FeatureCollection","features":[
{"type":"Feature","properties":{"tipo":"municipio","nombre":"Santiago de Cali"},"geometry":{"type":"Polygon","coordinates":[[[-76.7069,3.4307],[-76.6979,3.4117],[-76.689,3.4055],[-76.6877,3.4019],[-76.6902,3.3898],[-76.6885,3.3879],[-76.6934,3.3783],[-76.6944,3.3676],[-76.7018,3.3588],[-76.6998,3.3493],[-76.6949,3.3432],[-76.6972,3.3113],[-76.6799,3.3156],[-76.6735,3.3142],[-76.6655,3.3153],[-76.6566,3.3041],[-76.6435,3.2995],[-76.6364,3.3014],[-76.631,3.3066],[-76.6207,3.3049],[-76.6112,3.312],[-76.6027,3.3076],[-76.5816,3.3086],[-76.5804,3.3039],[-76.5726,3.3027],[-76.5708,3.2998],[-76.5665,3.2989],[-76.5673,3.2941],[-76.5657,3.2897],[-76.564,3.2865],[-76.5602,3.2854],[-76.5592,3.2813],[-76.5517,3.2866],[-76.5479,3.283],[-76.5461,3.2854],[-76.5445,3.2829],[-76.5443,3.2782],[-76.5394,3.2816],[-76.5364,3.2805],[-76.5328,3.283],[-76.5273,3.2866],[-76.5219,3.2849],[-76.5199,3.2813],[-76.5135,3.2775],[-76.5084,3.2782],[-76.5054,3.2807],[-76.5015,3.2792],[-76.4995,3.2734],[-76.4968,3.2791],[-76.4948,3.2813],[-76.4926,3.2856],[-76.4945,3.2928],[-76.4896,3.2987],[-76.4897,3.305],[-76.4853,3.3038],[-76.4822,3.2933],[-76.4795,3.292],[-76.4766,3.2936],[-76.4775,3.3012],[-76.4736,3.3056],[-76.4781,3.3205],[-76.4726,3.3189],[-76.4723,3.3131],[-76.4701,3.3104],[-76.468,3.3123],[-76.4678,3.3208],[-76.4636,3.3165],[-76.4619,3.3222],[-76.4589,3.3255],[-76.4608,3.3289],[-76.4605,3.3374],[-76.4643,3.3428],[-76.4633,3.3516],[-76.4604,3.3565],[-76.4642,3.359],[-76.4655,3.3672],[-76.4712,3.378],[-76.4663,3.3791],[-76.4633,3.3866],[-76.4639,3.3962],[-76.467,3.4033],[-76.4644,3.4067],[-76.4658,3.4096],[-76.4647,3.4126],[-76.4608,3.416],[-76.4601,3.429],[-76.4616,3.4369],[-76.4657,3.4404],[-76.4657,3.4476],[-76.47,3.4463],[-76.4721,3.4411],[-76.4746,3.4423],[-76.4772,3.4603],[-76.4739,3.4665],[-76.4756,3.474],[-76.4815,3.4841],[-76.4839,3.4952],[-76.4912,3.5003],[-76.4913,3.5062],[-76.4944,3.5054],[-76.4973,3.4982],[-76.5078,3.4939],[-76.5088,3.4903],[-76.5224,3.4945],[-76.525,3.4973],[-76.5303,3.4971],[-76.534,3.5002],[-76.5426,3.4994],[-76.545,3.4958],[-76.548,3.5001],[-76.5496,3.5094],[-76.563,3.5136],[-76.5666,3.5207],[-76.5736,3.5195],[-76.5819,3.5255],[-76.5861,3.5311],[-76.5859,3.5461],[-76.5918,3.5469],[-76.5965,3.546],[-76.6002,3.5472],[-76.6044,3.5422],[-76.6103,3.5345],[-76.6179,3.5292],[-76.618,3.5221],[-76.6231,3.5145],[-76.6234,3.4994],[-76.6285,3.4885],[-76.6401,3.4812],[-76.645,3.4718],[-76.6501,3.4674],[-76.66,3.4663],[-76.6653,3.4681],[-76.6744,3.4616],[-76.6773,3.4638],[-76.6831,3.4628],[-76.6844,3.465],[-76.6905,3.4614],[-76.6925,3.4503],[-76.6979,3.4454],[-76.7031,3.4453],[-76.7053,3.4421],[-76.7069,3.4307]]]}},
{"type":"Feature","properties":{"tipo":"comuna","nombre":"Comuna 1","numero":1},"geometry":{"type":"Polygon","coordinates":[[[-76.5928,3.4663],[-76.5905,3.4655],[-76.5882,3.4616],[-76.5836,3.4575],[-76.5848,3.4537],[-76.5828,3.4543],[-76.579,3.4497],[-76.5689,3.4488],[-76.5653,3.4498],[-76.5639,3.4483],[-76.5579,3.4496],[-76.5532,3.4532],[-76.548,3.4549],[-76.5502,3.4598],[-76.5525,3.4606],[-76.5546,3.4596],[-76.5546,3.4615],[-76.5592,3.4636],[-76.5606,3.4607],[-76.5636,3.4568],[-76.5681,3.4569],[-76.5689,3.4559],[-76.5727,3.4561],[-76.573,3.4583],[-76.5752,3.458],[-76.576,3.4601],[-76.5779,3.4585],[-76.5796,3.4601],[-76.5827,3.4576],[-76.59,3.4669],[-76.5928,3.4663]]]}},
{"type":"Feature","properties":{"tipo":"comuna","nombre":"Comuna 2","numero":2},"geometry":{"type":"Polygon","coordinates":[[[-76.5579,3.4495],[-76.5564,3.4476],[-76.5544,3.4478],[-76.5496,3.4476],[-76.5462,3.4463],[-76.5465,3.4481],[-76.5442,3.4481],[-76.5424,3.449],[-76.5439,3.4486],[-76.5444,3.4511],[-76.538,3.451],[-76.5326,3.454],[-76.5315,3.4568],[-76.5279,3.4581],[-76.5242,3.4622],[-76.5206,3.4625],[-76.5088,3.4813],[-76.504,3.4839],[-76.5038,3.488],[-76.4973,3.4982],[-76.5078,3.4939],[-76.5088,3.4903],[-76.5224,3.4945],[-76.5242,3.4968],[-76.527,3.4977],[-76.5283,3.488],[-76.5301,3.4893],[-76.5303,3.4921],[-76.5355,3.4923],[-76.5384,3.4901],[-76.5349,3.4882],[-76.5313,3.4821],[-76.5284,3.4817],[-76.5301,3.4758],[-76.5325,3.476],[-76.5313,3.4717],[-76.5355,3.463],[-76.5401,3.4654],[-76.5408,3.4588],[-76.5429,3.4577],[-76.5415,3.4564],[-76.5442,3.4555],[-76.5467,3.4567],[-76.5486,3.4559],[-76.5532,3.4532],[-76.5579,3.4495]]]}},
{"type":"Feature","properties":{"tipo":"comuna","nombre":"Comuna 3","numero":3},"geometry":{"type":"Polygon","coordinates":[[[-76.5489,3.4446],[-76.5484,3.4429],[-76.5438,3.4408],[-76.5409,3.4418],[-76.5377,3.4386],[-76.5331,3.4421],[-76.526,3.4426],[-76.5282,3.4501],[-76.5186,3.453],[-76.5213,3.4622],[-76.5242,3.4622],[-76.5279,3.4581],[-76.5315,3.4568],[-76.5326,3.454],[-76.538,3.451],[-76.5444,3.4511],[-76.5439,3.4486],[-76.5424,3.449],[-76.5442,3.4481],[-76.5465,3.4481],[-76.5462,3.4459],[-76.5489,3.4446]]]}},
{"type":"Feature","properties":{"tipo":"comuna","nombre":"Comuna 4","numero":4},"geometry":{"type":"Polygon","coordinates":[[[-76.5213,3.4622],[-76.5181,3.4536],[-76.5161,3.4554],[-76.5017,3.46],[-76.5062,3.4706],[-76.5029,3.4716],[-76.5045,3.476],[-76.4986,3.4811],[-76.4953,3.486],[-76.5038,3.488],[-76.504,3.4839],[-76.5088,3.4813],[-76.5213,3.4622]]]}},
{"type":"Feature","properties":{"tipo":"comuna","nombre":"Comuna 5","numero":5},"geometry":{"type":"Polygon","coordinates":[[[-76.5062,3.4706],[-76.5017,3.46],[-76.4844,3.4655],[-76.4901,3.4833],[-76.4953,3.486],[-76.4986,3.4811],[-76.5045,3.476],[-76.5029,3.4716],[-76.5062,3.4706]]]}},
{"type":"Feature","properties":{"tipo":"comuna","nombre":"Comuna 6","numero":6},"geometry":{"type":"Polygon","coordinates":[[[-76.5032,3.4884],[-76.4903,3.4837],[-76.4844,3.4655],[-76.4749,3.4685],[-76.476,3.4752],[-76.4815,3.4841],[-76.4839,3.4952],[-76.4912,3.5003],[-76.4913,3.5062],[-76.4943,3.5055],[-76.4941,3.5036],[-76.4957,3.5027],[-76.4969,3.5019],[-76.4974,3.498],[-76.5032,3.4884]]]}},
{"type":"Feature","properties":{"tipo":"comuna","nombre":"Comuna 7","numero":7},"geometry":{"type":"Polygon","coordinates":[[[-76.5103,3.4573],[-76.5095,3.454],[-76.4865,3.4522],[-76.4911,3.4438],[-76.4869,3.4433],[-76.4814,3.4447],[-76.4801,3.4472],[-76.4757,3.45],[-76.4772,3.4613],[-76.4739,3.4665],[-76.4749,3.4685],[-76.5103,3.4573]]]}},
{"type":"Feature","properties":{"tipo":"comuna","nombre":"Comuna 8","numero":8},"geometry":{"type":"Polygon","coordinates":[[[-76.5194,3.4357],[-76.513,3.4366],[-76.5113,3.4344],[-76.5095,3.4349],[-76.5079,3.436],[-76.5084,3.4378],[-76.5016,3.4402],[-76.5026,3.4433],[-76.4975,3.4429],[-76.4975,3.4397],[-76.4953,3.4404],[-76.4911,3.4438],[-76.4865,3.4522],[-76.5095,3.454],[-76.5103,3.4573],[-76.5161,3.4554],[-76.5176,3.4537],[-76.5189,3.4542],[-76.5179,3.4493],[-76.5194,3.4357]]]}},
{"type":"Feature","properties":{"tipo":"comuna","nombre":"Comuna 9","numero":9},"geometry":{"type":"Polygon","coordinates":[[[-76.5385,3.4376],[-76.5343,3.4337],[-76.5298,3.4321],[-76.5275,3.4319],[-76.5231,3.4349],[-76.5194,3.4357],[-76.5179,3.4489],[-76.5186,3.453],[-76.5282,3.4501],[-76.526,3.4426],[-76.5331,3.4421],[-76.5363,3.4404],[-76.5385,3.4376]]]}},
{"type":"Feature","properties":{"tipo":"comuna","nombre":"Comuna 10","numero":10},"geometry":{"type":"Polygon","coordinates":[[[-76.5387,3.4103],[-76.5226,3.4056],[-76.5194,3.4357],[-76.5231,3.4349],[-76.5295,3.4305],[-76.5316,3.4246],[-76.5341,3.4246],[-76.5387,3.4103]]]}},
{"type":"Feature","properties":{"tipo":"comuna","nombre":"Comuna 11","numero":11},"geometry":{"type":"Polygon","coordinates":[[[-76.5226,3.4056],[-76.5027,3.4246],[-76.506,3.4279],[-76.5074,3.4273],[-76.5104,3.4308],[-76.5098,3.432],[-76.5118,3.4329],[-76.5109,3.434],[-76.513,3.4366],[-76.5194,3.4357],[-76.5226,3.4056]]]}},
{"type":"Feature","properties":{"tipo":"comuna","nombre":"Comuna 12","numero":12},"geometry":{"type":"Polygon","coordinates":[[[-76.5118,3.4329],[-76.5098,3.432],[-76.5104,3.4308],[-76.5074,3.4273],[-76.506,3.4279],[-76.5027,3.4246],[-76.4984,3.4291],[-76.4911,3.4438],[-76.4975,3.4397],[-76.4975,3.4429],[-76.5026,3.4433],[-76.5016,3.4402],[-76.5084,3.4378],[-76.5079,3.436],[-76.5113,3.4344],[-76.5118,3.4329]]]}},
{"type":"Feature","properties":{"tipo":"comuna","nombre":"Comuna 13","numero":13},"geometry":{"type":"Polygon","coordinates":[[[-76.5065,3.4209],[-76.5031,3.4172],[-76.5046,3.4158],[-76.5005,3.4115],[-76.4951,3.4166],[-76.4876,3.4194],[-76.4838,3.4283],[-76.4841,3.4443],[-76.4911,3.4438],[-76.4984,3.4291],[-76.5065,3.4209]]]}},
{"type":"Feature","properties":{"tipo":"comuna","nombre":"Comuna 14","numero":14},"geometry":{"type":"Polygon","coordinates":[[[-76.4881,3.4194],[-76.4838,3.4152],[-76.4796,3.4135],[-76.4798,3.4119],[-76.4736,3.4116],[-76.4666,3.4238],[-76.4765,3.4378],[-76.4822,3.4415],[-76.4841,3.4402],[-76.4838,3.4283],[-76.4881,3.4194]]]}},
{"type":"Feature","properties":{"tipo":"comuna","nombre":"Comuna 15","numero":15},"geometry":{"type":"Polygon","coordinates":[[[-76.5161,3.397],[-76.51,3.3883],[-76.5083,3.3887],[-76.5045,3.3921],[-76.4985,3.4028],[-76.4924,3.4086],[-76.4837,3.4132],[-76.4829,3.4149],[-76.4881,3.4194],[-76.4951,3.4166],[-76.5161,3.397]]]}},
{"type":"Feature","properties":{"tipo":"comuna","nombre":"Comuna 16","numero":16},"geometry":{"type":"Polygon","coordinates":[[[-76.5246,3.3873],[-76.5207,3.3906],[-76.51,3.3883],[-76.5161,3.397],[-76.5005,3.4115],[-76.5046,3.4158],[-76.5031,3.4172],[-76.5065,3.4209],[-76.5226,3.4056],[-76.5246,3.3873]]]}},
{"type":"Feature","properties":{"tipo":"comuna","nombre":"Comuna 17","numero":17},"geometry":{"type":"Polygon","coordinates":[[[-76.5464,3.4004],[-76.5444,3.3839],[-76.5416,3.3736],[-76.526,3.3655],[-76.5243,3.3621],[-76.5212,3.364],[-76.5193,3.3629],[-76.5179,3.3643],[-76.5148,3.363],[-76.514,3.3856],[-76.513,3.3888],[-76.5207,3.3906],[-76.5246,3.3872],[-76.5226,3.4056],[-76.5387,3.4103],[-76.5418,3.4009],[-76.5464,3.4004]]]}},
{"type":"Feature","properties":{"tipo":"comuna","nombre":"Comuna 18","numero":18},"geometry":{"type":"Polygon","coordinates":[[[-76.5635,3.3888],[-76.5617,3.3874],[-76.5612,3.3855],[-76.5616,3.3825],[-76.5596,3.3796],[-76.5614,3.3795],[-76.5601,3.3774],[-76.5613,3.3711],[-76.5591,3.37],[-76.5586,3.3681],[-76.5512,3.3668],[-76.5493,3.3711],[-76.5477,3.3701],[-76.5442,3.3714],[-76.5451,3.3736],[-76.5424,3.3755],[-76.5463,3.3962],[-76.5496,3.3952],[-76.5608,3.3954],[-76.5615,3.3908],[-76.5635,3.3888]]]}},
{"type":"Feature","properties":{"tipo":"comuna","nombre":"Comuna 19","numero":19},"geometry":{"type":"Polygon","coordinates":[[[-76.5653,3.4498],[-76.5688,3.4485],[-76.5662,3.4486],[-76.5585,3.4472],[-76.5559,3.4425],[-76.5534,3.4415],[-76.5532,3.4387],[-76.5576,3.4357],[-76.5563,3.4286],[-76.5542,3.4271],[-76.5541,3.4288],[-76.5524,3.4293],[-76.5503,3.427],[-76.5521,3.4257],[-76.5556,3.4118],[-76.5603,3.4137],[-76.5656,3.4108],[-76.5661,3.4071],[-76.5633,3.4073],[-76.5625,3.4098],[-76.5591,3.4115],[-76.5578,3.4095],[-76.5582,3.4067],[-76.5558,3.4063],[-76.5579,3.3948],[-76.5463,3.3962],[-76.5464,3.4004],[-76.5418,3.4009],[-76.5341,3.4246],[-76.5316,3.4246],[-76.5295,3.4305],[-76.5275,3.4319],[-76.5343,3.4337],[-76.5409,3.4418],[-76.5438,3.4408],[-76.5484,3.4429],[-76.5489,3.4448],[-76.5464,3.4457],[-76.5544,3.4466],[-76.5564,3.4476],[-76.5586,3.4497],[-76.564,3.4483],[-76.5653,3.4498]]]}},
{"type":"Feature","properties":{"tipo":"comuna","nombre":"Comuna 20","numero":20},"geometry":{"type":"Polygon","coordinates":[[[-76.5684,3.417],[-76.5641,3.4149],[-76.5636,3.4128],[-76.5661,3.4123],[-76.5653,3.4107],[-76.559,3.4139],[-76.5556,3.4118],[-76.5528,3.4239],[-76.5505,3.4279],[-76.5524,3.4293],[-76.5541,3.4288],[-76.5542,3.4271],[-76.5549,3.4286],[-76.5572,3.4286],[-76.5597,3.4249],[-76.5642,3.4261],[-76.5682,3.4195],[-76.5684,3.417]]]}},
{"type":"Feature","properties":{"tipo":"comuna","nombre":"Comuna 21","numero":21},"geometry":{"type":"Polygon","coordinates":[[[-76.4842,3.4434],[-76.4841,3.4402],[-76.4822,3.4415],[-76.4765,3.4378],[-76.4668,3.4251],[-76.4736,3.4116],[-76.4798,3.4116],[-76.4793,3.408],[-76.4761,3.4056],[-76.4771,3.4033],[-76.4748,3.3994],[-76.4728,3.4011],[-76.4676,3.3998],[-76.4684,3.4034],[-76.4662,3.4069],[-76.4674,3.4111],[-76.466,3.4148],[-76.4633,3.4172],[-76.4613,3.4265],[-76.4632,3.4351],[-76.4689,3.4404],[-76.4738,3.4404],[-76.4759,3.4433],[-76.4753,3.4476],[-76.4768,3.4493],[-76.4842,3.4434]]]}},
{"type":"Feature","properties":{"tipo":"comuna","nombre":"Comuna 22","numero":22},"geometry":{"type":"Polygon","coordinates":[[[-76.5547,3.3477],[-76.5505,3.3457],[-76.552,3.3414],[-76.5502,3.3386],[-76.5506,3.3322],[-76.5327,3.3332],[-76.5285,3.3351],[-76.525,3.3349],[-76.5245,3.3638],[-76.5411,3.3732],[-76.5424,3.3755],[-76.544,3.3749],[-76.5453,3.3726],[-76.5442,3.3714],[-76.5479,3.3712],[-76.5423,3.361],[-76.5428,3.3596],[-76.5483,3.3507],[-76.5498,3.35],[-76.5521,3.3511],[-76.5547,3.3477]]]}}
]}